IRIDIUM 63              
1 25286U 98021B   25333.81213294  .00000408  00000+0  13195-3 0  9992
2 25286  86.3997  12.6393 0002402  93.9815 266.1657 14.36720074447624
IRIDIUM 69              
1 25319U 98026A   25333.66199792  .00000566  00000+0  16931-3 0  9999
2 25319  86.3993  25.4669 0002855 149.2149 210.9219 14.41195124446899
IRIDIUM 71              
1 25320U 98026B   25333.64972604  .00000310  00000+0  89736-4 0  9991
2 25320  86.3992  20.1461 0000448 165.7749 194.3463 14.41305825447424
IRIDIUM 73              
1 25344U 98032C   25333.75373620  .00000688  00000+0  16557-3 0  9997
2 25344  86.4401 336.5096 0002668 103.8891 256.2611 14.51961192454585
IRIDIUM 82              
1 25467U 98051A   25333.63673484  .00040467  00000+0  78436-3 0  9995
2 25467  86.3633  27.6967 0064674  26.0128 334.4353 15.45192277449373
